[{"OBJECT_NAME":"STARLINK-35052","OBJECT_ID":"2025-200W","EPOCH":"2026-03-09T18:22:26.334912","MEAN_MOTION":15.05644096,"ECCENTRICITY":2.41e-5,"INCLINATION":97.6015,"RA_OF_ASC_NODE":139.8947,"ARG_OF_PERICENTER":162.8845,"MEAN_ANOMALY":197.239,"EPHEMERIS_TYPE":0,"CLASSIFICATION_TYPE":"U","NORAD_CAT_ID":65540,"ELEMENT_SET_NO":999,"REV_AT_EPOCH":2906,"BSTAR":9.8704499e-5,"MEAN_MOTION_DOT":1.364e-5,"MEAN_MOTION_DDOT":0},{"OBJECT_NAME":"COSMOS 2251 DEB","OBJECT_ID":"1993-036AZN","EPOCH":"2026-03-08T04:55:11.679456","MEAN_MOTION":14.74823481,"ECCENTRICITY":0.01364476,"INCLINATION":73.9716,"RA_OF_ASC_NODE":347.1087,"ARG_OF_PERICENTER":142.1945,"MEAN_ANOMALY":218.8911,"EPHEMERIS_TYPE":0,"CLASSIFICATION_TYPE":"U","NORAD_CAT_ID":36385,"ELEMENT_SET_NO":999,"REV_AT_EPOCH":86361,"BSTAR":0.002162243,"MEAN_MOTION_DOT":0.00016854,"MEAN_MOTION_DDOT":0}]
